start=new Date('2021-12-03T00:00:00.000Z').valueOf();
sats=[{"MEAN_ANOMALY":"160.1049","COUNTRY_CODE":"US","PERIOD":"91.358","DECAY_DATE":null,"ECCENTRICITY":"0.00149470","CLASSIFICATION_TYPE":"U","SITE":"AFETR","REV_AT_EPOCH":"6514","SEMIMAJOR_AXIS":"6719.285","EPOCH":"2021-12-01T22:45:23.808672","MEAN_MOTION_DOT":"0.00071476","OBJECT_TYPE":"PAYLOAD","BSTAR":"0.00044379000000","GP_ID":"190944613","TLE_LINE1":"1 46536U 20070E   21335.94819223  .00071476  00000-0  44379-3 0  9990","MEAN_MOTION_DDOT":"0.0000000000000","INCLINATION":"53.0545","TIME_SYSTEM":"UTC","CENTER_NAME":"EARTH","FILE":"3230859","EPHEMERIS_TYPE":"0","APOAPSIS":"351.193","RA_OF_ASC_NODE":"293.0093","MEAN_MOTION":"15.76224895","OBJECT_NAME":"STARLINK-1668","NORAD_CAT_ID":"46536","REF_FRAME":"TEME","OBJECT_ID":"2020-070E","MEAN_ELEMENT_THEORY":"SGP4","LAUNCH_DATE":"2020-10-06","TLE_LINE2":"2 46536  53.0545 293.0093 0014947 199.9388 160.1049 15.76224895 65142","RCS_SIZE":"LARGE","ELEMENT_SET_NO":"999","ARG_OF_PERICENTER":"199.9388","PERIAPSIS":"331.107"},{"GP_ID":"190945364","TLE_LINE1":"1 46537U 20070F   21336.40130518  .00000336  00000-0  41432-4 0  9991","BSTAR":"0.00004143200000","OBJECT_TYPE":"PAYLOAD","REV_AT_EPOCH":"6463","SITE":"AFETR","MEAN_MOTION_DOT":"0.00000336","SEMIMAJOR_AXIS":"6925.330","EPOCH":"2021-12-02T09:37:52.767552","ECCENTRICITY":"0.00019610","CLASSIFICATION_TYPE":"U","DECAY_DATE":null,"COUNTRY_CODE":"US","PERIOD":"95.592","MEAN_ANOMALY":"305.5771","ELEMENT_SET_NO":"999","ARG_OF_PERICENTER":"54.5400","PERIAPSIS":"545.837","TLE_LINE2":"2 46537  53.0534 332.0560 0001961  54.5400 305.5771 15.06406164 64631","RCS_SIZE":"LARGE","LAUNCH_DATE":"2020-10-06","MEAN_ELEMENT_THEORY":"SGP4","OBJECT_ID":"2020-070F","OBJECT_NAME":"STARLINK-1672","NORAD_CAT_ID":"46537","REF_FRAME":"TEME","MEAN_MOTION":"15.06406164","RA_OF_ASC_NODE":"332.0560","APOAPSIS":"548.553","EPHEMERIS_TYPE":"0","FILE":"3230859","CENTER_NAME":"EARTH","TIME_SYSTEM":"UTC","MEAN_MOTION_DDOT":"0.0000000000000","INCLINATION":"53.0534"},{"APOAPSIS":"548.435","EPHEMERIS_TYPE":"0","TIME_SYSTEM":"UTC","INCLINATION":"53.0533","MEAN_MOTION_DDOT":"0.0000000000000","FILE":"3230859","CENTER_NAME":"EARTH","LAUNCH_DATE":"2020-10-06","MEAN_ELEMENT_THEORY":"SGP4","ARG_OF_PERICENTER":"63.3519","ELEMENT_SET_NO":"999","PERIAPSIS":"545.957","TLE_LINE2":"2 46538  53.0533 332.1514 0001789  63.3519 296.7654 15.06405857 64626","RCS_SIZE":"LARGE","OBJECT_NAME":"STARLINK-1678","NORAD_CAT_ID":"46538","REF_FRAME":"TEME","RA_OF_ASC_NODE":"332.1514","MEAN_MOTION":"15.06405857","OBJECT_ID":"2020-070G","ECCENTRICITY":"0.00017890","CLASSIFICATION_TYPE":"U","MEAN_ANOMALY":"296.7654","DECAY_DATE":null,"COUNTRY_CODE":"US","PERIOD":"95.592","BSTAR":"0.00019376000000","GP_ID":"190944112","TLE_LINE1":"1 46538U 20070G   21336.37919187  .00002606  00000-0  19376-3 0  9998","REV_AT_EPOCH":"6462","SITE":"AFETR","SEMIMAJOR_AXIS":"6925.331","MEAN_MOTION_DOT":"0.00002606","EPOCH":"2021-12-02T09:06:02.177568","OBJECT_TYPE":"PAYLOAD"},{"TLE_LINE1":"1 46539U 20070H   21336.60047074  .00315855  00000-0  15763-1 0  9999","GP_ID":"190949964","BSTAR":"0.01576300000000","OBJECT_TYPE":"PAYLOAD","EPOCH":"2021-12-02T14:24:40.671936","SEMIMAJOR_AXIS":"6897.432","MEAN_MOTION_DOT":"0.00315855","REV_AT_EPOCH":"6438","SITE":"AFETR","ECCENTRICITY":"0.00019920","CLASSIFICATION_TYPE":"U","PERIOD":"95.015","COUNTRY_CODE":"US","DECAY_DATE":null,"MEAN_ANOMALY":"250.0272","RCS_SIZE":"LARGE","TLE_LINE2":"2 46539  53.0531 330.7628 0001992 110.0936 250.0272 15.15554780 64386","PERIAPSIS":"517.923","ELEMENT_SET_NO":"999","ARG_OF_PERICENTER":"110.0936","LAUNCH_DATE":"2020-10-06","MEAN_ELEMENT_THEORY":"SGP4","OBJECT_ID":"2020-070H","MEAN_MOTION":"15.15554780","RA_OF_ASC_NODE":"330.7628","REF_FRAME":"TEME","NORAD_CAT_ID":"46539","OBJECT_NAME":"STARLINK-1684","EPHEMERIS_TYPE":"0","APOAPSIS":"520.671","CENTER_NAME":"EARTH","FILE":"3231018","INCLINATION":"53.0531","MEAN_MOTION_DDOT":"0.0000000000000","TIME_SYSTEM":"UTC"},{"SITE":"AFETR","REV_AT_EPOCH":"6490","MEAN_MOTION_DOT":"0.00002288","SEMIMAJOR_AXIS":"6925.341","EPOCH":"2021-12-02T08:36:50.005440","OBJECT_TYPE":"PAYLOAD","BSTAR":"0.00017243000000","GP_ID":"190945114","TLE_LINE1":"1 46541U 20070K   21336.35891210  .00002288  00000-0  17243-3 0  9993","MEAN_ANOMALY":"305.5442","DECAY_DATE":null,"COUNTRY_CODE":"US","PERIOD":"95.592","ECCENTRICITY":"0.00019450","CLASSIFICATION_TYPE":"U","NORAD_CAT_ID":"46541","OBJECT_NAME":"STARLINK-1687","REF_FRAME":"TEME","MEAN_MOTION":"15.06402529","RA_OF_ASC_NODE":"312.2296","OBJECT_ID":"2020-070K","MEAN_ELEMENT_THEORY":"SGP4","LAUNCH_DATE":"2020-10-06","ARG_OF_PERICENTER":"54.5728","ELEMENT_SET_NO":"999","PERIAPSIS":"545.859","TLE_LINE2":"2 46541  53.0559 312.2296 0001945  54.5728 305.5442 15.06402529 64900","RCS_SIZE":"LARGE","TIME_SYSTEM":"UTC","INCLINATION":"53.0559","MEAN_MOTION_DDOT":"0.0000000000000","FILE":"3230859","CENTER_NAME":"EARTH","APOAPSIS":"548.553","EPHEMERIS_TYPE":"0"},{"ECCENTRICITY":"0.00016460","CLASSIFICATION_TYPE":"U","PERIOD":"95.592","COUNTRY_CODE":"US","DECAY_DATE":null,"MEAN_ANOMALY":"305.5531","TLE_LINE1":"1 46542U 20070L   21336.69250638 -.00000547  00000-0 -17823-4 0  9997","GP_ID":"190949972","BSTAR":"-0.00001782300000","OBJECT_TYPE":"PAYLOAD","SEMIMAJOR_AXIS":"6925.359","MEAN_MOTION_DOT":"-0.00000547","EPOCH":"2021-12-02T16:37:12.551232","SITE":"AFETR","REV_AT_EPOCH":"6469","EPHEMERIS_TYPE":"0","APOAPSIS":"548.364","CENTER_NAME":"EARTH","FILE":"3231019","INCLINATION":"53.0549","MEAN_MOTION_DDOT":"0.0000000000000","TIME_SYSTEM":"UTC","RCS_SIZE":"LARGE","TLE_LINE2":"2 46542  53.0549 330.7458 0001646  54.5611 305.5531 15.06396583 64691","PERIAPSIS":"546.084","ELEMENT_SET_NO":"999","ARG_OF_PERICENTER":"54.5611","MEAN_ELEMENT_THEORY":"SGP4","LAUNCH_DATE":"2020-10-06","OBJECT_ID":"2020-070L","MEAN_MOTION":"15.06396583","RA_OF_ASC_NODE":"330.7458","REF_FRAME":"TEME","OBJECT_NAME":"STARLINK-1692","NORAD_CAT_ID":"46542"},{"EPHEMERIS_TYPE":"0","APOAPSIS":"548.334","INCLINATION":"53.0610","MEAN_MOTION_DDOT":"0.0000000000000","TIME_SYSTEM":"UTC","CENTER_NAME":"EARTH","FILE":"3231019","MEAN_ELEMENT_THEORY":"SGP4","LAUNCH_DATE":"2020-10-06","TLE_LINE2":"2 46543  53.0610 330.8029 0001623  60.8987 299.2165 15.06401245 64691","RCS_SIZE":"LARGE","ELEMENT_SET_NO":"999","ARG_OF_PERICENTER":"60.8987","PERIAPSIS":"546.086","MEAN_MOTION":"15.06401245","RA_OF_ASC_NODE":"330.8029","NORAD_CAT_ID":"46543","OBJECT_NAME":"STARLINK-1693","REF_FRAME":"TEME","OBJECT_ID":"2020-070M","ECCENTRICITY":"0.00016230","CLASSIFICATION_TYPE":"U","MEAN_ANOMALY":"299.2165","COUNTRY_CODE":"US","PERIOD":"95.592","DECAY_DATE":null,"BSTAR":"-0.00033541000000","GP_ID":"190949978","TLE_LINE1":"1 46543U 20070M   21336.67776219 -.00005274  00000-0 -33541-3 0  9990","SITE":"AFETR","REV_AT_EPOCH":"6469","MEAN_MOTION_DOT":"-0.00005274","SEMIMAJOR_AXIS":"6925.345","EPOCH":"2021-12-02T16:15:58.653216","OBJECT_TYPE":"PAYLOAD"},{"ECCENTRICITY":"0.00016270","CLASSIFICATION_TYPE":"U","COUNTRY_CODE":"US","PERIOD":"95.593","DECAY_DATE":null,"MEAN_ANOMALY":"296.1320","GP_ID":"190943862","TLE_LINE1":"1 46544U 20070N   21336.34187972  .00000822  00000-0  74101-4 0  9997","BSTAR":"0.00007410100000","OBJECT_TYPE":"PAYLOAD","REV_AT_EPOCH":"6483","SITE":"AFETR","EPOCH":"2021-12-02T08:12:18.407808","SEMIMAJOR_AXIS":"6925.367","MEAN_MOTION_DOT":"0.00000822","EPHEMERIS_TYPE":"0","APOAPSIS":"548.359","CENTER_NAME":"EARTH","FILE":"3230859","MEAN_MOTION_DDOT":"0.0000000000000","INCLINATION":"53.0562","TIME_SYSTEM":"UTC","TLE_LINE2":"2 46544  53.0562 317.3129 0001627  63.9837 296.1320 15.06394000 64836","RCS_SIZE":"LARGE","ARG_OF_PERICENTER":"63.9837","ELEMENT_SET_NO":"999","PERIAPSIS":"546.105","LAUNCH_DATE":"2020-10-06","MEAN_ELEMENT_THEORY":"SGP4","OBJECT_ID":"2020-070N","MEAN_MOTION":"15.06394000","RA_OF_ASC_NODE":"317.3129","NORAD_CAT_ID":"46544","OBJECT_NAME":"STARLINK-1694","REF_FRAME":"TEME"},{"ECCENTRICITY":"0.00018500","CLASSIFICATION_TYPE":"U","DECAY_DATE":null,"COUNTRY_CODE":"US","PERIOD":"95.592","MEAN_ANOMALY":"299.9535","GP_ID":"190944614","TLE_LINE1":"1 46545U 20070P   21336.38287957  .00001876  00000-0  14477-3 0  9995","BSTAR":"0.00014477000000","OBJECT_TYPE":"PAYLOAD","REV_AT_EPOCH":"6462","SITE":"AFETR","SEMIMAJOR_AXIS":"6925.336","EPOCH":"2021-12-02T09:11:20.794848","MEAN_MOTION_DOT":"0.00001876","APOAPSIS":"548.482","EPHEMERIS_TYPE":"0","FILE":"3230859","CENTER_NAME":"EARTH","TIME_SYSTEM":"UTC","MEAN_MOTION_DDOT":"0.0000000000000","INCLINATION":"53.0549","ELEMENT_SET_NO":"999","ARG_OF_PERICENTER":"60.1638","PERIAPSIS":"545.919","TLE_LINE2":"2 46545  53.0549 332.1386 0001850  60.1638 299.9535 15.06404249 64621","RCS_SIZE":"LARGE","MEAN_ELEMENT_THEORY":"SGP4","LAUNCH_DATE":"2020-10-06","OBJECT_ID":"2020-070P","NORAD_CAT_ID":"46545","OBJECT_NAME":"STARLINK-1696","REF_FRAME":"TEME","MEAN_MOTION":"15.06404249","RA_OF_ASC_NODE":"332.1386"},{"OBJECT_TYPE":"PAYLOAD","REV_AT_EPOCH":"6462","SITE":"AFETR","MEAN_MOTION_DOT":"0.00001318","SEMIMAJOR_AXIS":"6925.347","EPOCH":"2021-12-02T08:50:06.933984","GP_ID":"190945365","TLE_LINE1":"1 46546U 20070Q   21336.36813581  .00001318  00000-0  10737-3 0  9998","BSTAR":"0.00010737000000","DECAY_DATE":null,"COUNTRY_CODE":"US","PERIOD":"95.592","MEAN_ANOMALY":"303.0323","CLASSIFICATION_TYPE":"U","ECCENTRICITY":"0.00018510","OBJECT_ID":"2020-070Q","OBJECT_NAME":"STARLINK-1697","NORAD_CAT_ID":"46546","REF_FRAME":"TEME","MEAN_MOTION":"15.06400554","RA_OF_ASC_NODE":"332.1929","ELEMENT_SET_NO":"999","ARG_OF_PERICENTER":"57.0844","PERIAPSIS":"545.930","TLE_LINE2":"2 46546  53.0552 332.1929 0001851  57.0844 303.0323 15.06400554 64621","RCS_SIZE":"LARGE","LAUNCH_DATE":"2020-10-06","MEAN_ELEMENT_THEORY":"SGP4","FILE":"3230859","CENTER_NAME":"EARTH","TIME_SYSTEM":"UTC","MEAN_MOTION_DDOT":"0.0000000000000","INCLINATION":"53.0552","APOAPSIS":"548.494","EPHEMERIS_TYPE":"0"}];
